*******************************************************************************
Ephemeris / WWW_USER Fri Mar  7 09:51:41 2025 Pasadena, USA      / Horizons    
*******************************************************************************
Target body name: Triton (801)                    {source: nep097_merged}
Center body name: Earth (399)                     {source: nep097_merged}
Center-site name: Mauna Kea
*******************************************************************************
Start time      : A.D. 2018-Nov-22 03:51:00.0000 UT      
Stop  time      : A.D. 2018-Nov-22 16:25:00.0000 UT      
Step-size       : 1 minutes
*******************************************************************************
Target pole/equ : IAU_TRITON                      {East-longitude positive}
Target radii    : 1352.6, 1352.6, 1352.6 km       {Equator_a, b, pole_c}       
Center geodetic : 204.5278, 19.8260847, 4.21024   {E-lon(deg),Lat(deg),Alt(km)}
Center cylindric: 204.5278, 6006.35451, 2151.0229 {E-lon(deg),Dxy(km),Dz(km)}
Center pole/equ : ITRF93                          {East-longitude positive}
Center radii    : 6378.137, 6378.137, 6356.752 km {Equator_a, b, pole_c}       
Target primary  : Neptune
Vis. interferer : MOON (R_eq= 1737.400) km        {source: DE441}
Rel. light bend : Sun                             {source: nep097_merged}
Rel. lght bnd GM: 1.3271E+11 km^3/s^2                                          
Atmos refraction: NO (AIRLESS)
RA format       : HMS
Time format     : CAL 
Calendar mode   : Mixed Julian/Gregorian
RTS-only print  : NO       
EOP file        : eop.250306.p250602                                           
EOP coverage    : DATA-BASED 1962-JAN-20 TO 2025-MAR-06. PREDICTS-> 2025-JUN-01
Units conversion: 1 au= 149597870.700 km, c= 299792.458 km/s, 1 day= 86400.0 s 
Table cut-offs 1: Elevation (-90.0deg=NO ),Airmass (>38.000=NO), Daylight (YES)
Table cut-offs 2: Solar elongation (  0.0,180.0=NO ),Local Hour Angle( 0.0=NO )
Table cut-offs 3: RA/DEC angular rate (     0.0=NO )                           
*******************************************************************************
 Date__(UT)__HR:MN     R.A._________(ICRF)_________DEC
******************************************************
$$SOE
 2018-Nov-22 10:51  m  23 00 28.241777 -07 25 02.38422
 2018-Nov-22 10:52  m  23 00 28.242138 -07 25 02.38238
 2018-Nov-22 10:53  m  23 00 28.242499 -07 25 02.38055
 2018-Nov-22 10:54  m  23 00 28.242860 -07 25 02.37872
 2018-Nov-22 10:55  m  23 00 28.243222 -07 25 02.37690
 2018-Nov-22 10:56  m  23 00 28.243584 -07 25 02.37509
 2018-Nov-22 10:57  m  23 00 28.243946 -07 25 02.37328
 2018-Nov-22 10:58  m  23 00 28.244309 -07 25 02.37149
 2018-Nov-22 10:59  m  23 00 28.244672 -07 25 02.36970
 2018-Nov-22 11:00  m  23 00 28.245035 -07 25 02.36792
 2018-Nov-22 11:01  m  23 00 28.245399 -07 25 02.36614
 2018-Nov-22 11:02  m  23 00 28.245763 -07 25 02.36438
 2018-Nov-22 11:03  m  23 00 28.246127 -07 25 02.36262
 2018-Nov-22 11:04  m  23 00 28.246492 -07 25 02.36087
 2018-Nov-22 11:05  m  23 00 28.246857 -07 25 02.35912
 2018-Nov-22 11:06  m  23 00 28.247222 -07 25 02.35739
 2018-Nov-22 11:07  m  23 00 28.247587 -07 25 02.35566
 2018-Nov-22 11:08  m  23 00 28.247953 -07 25 02.35394
 2018-Nov-22 11:09  m  23 00 28.248319 -07 25 02.35223
 2018-Nov-22 11:10  m  23 00 28.248686 -07 25 02.35052
 2018-Nov-22 11:11  m  23 00 28.249053 -07 25 02.34882
 2018-Nov-22 11:12  m  23 00 28.249420 -07 25 02.34713
 2018-Nov-22 11:13  m  23 00 28.249787 -07 25 02.34545
 2018-Nov-22 11:14  m  23 00 28.250155 -07 25 02.34378
 2018-Nov-22 11:15  m  23 00 28.250523 -07 25 02.34211
 2018-Nov-22 11:16  m  23 00 28.250891 -07 25 02.34045
 2018-Nov-22 11:17  m  23 00 28.251260 -07 25 02.33880
 2018-Nov-22 11:18  m  23 00 28.251629 -07 25 02.33716
 2018-Nov-22 11:19  s  23 00 28.251998 -07 25 02.33552
 2018-Nov-22 11:20  m  23 00 28.252368 -07 25 02.33389
 2018-Nov-22 11:21  m  23 00 28.252738 -07 25 02.33227
 2018-Nov-22 11:22  m  23 00 28.253108 -07 25 02.33066
 2018-Nov-22 11:23  m  23 00 28.253478 -07 25 02.32905
 2018-Nov-22 11:24  m  23 00 28.253849 -07 25 02.32745
 2018-Nov-22 11:25  m  23 00 28.254220 -07 25 02.32586
 2018-Nov-22 11:26  m  23 00 28.254592 -07 25 02.32428
 2018-Nov-22 11:27  m  23 00 28.254964 -07 25 02.32270
 2018-Nov-22 11:28  m  23 00 28.255336 -07 25 02.32114
 2018-Nov-22 11:29  m  23 00 28.255708 -07 25 02.31958
 2018-Nov-22 11:30  m  23 00 28.256081 -07 25 02.31803
 2018-Nov-22 11:31  m  23 00 28.256454 -07 25 02.31648
 2018-Nov-22 11:32  m  23 00 28.256827 -07 25 02.31495
 2018-Nov-22 11:33  m  23 00 28.257201 -07 25 02.31342
 2018-Nov-22 11:34  m  23 00 28.257575 -07 25 02.31190
 2018-Nov-22 11:35  m  23 00 28.257949 -07 25 02.31038
 2018-Nov-22 11:36  m  23 00 28.258323 -07 25 02.30888
 2018-Nov-22 11:37  m  23 00 28.258698 -07 25 02.30738
 2018-Nov-22 11:38  m  23 00 28.259073 -07 25 02.30589
 2018-Nov-22 11:39  m  23 00 28.259449 -07 25 02.30441
 2018-Nov-22 11:40  m  23 00 28.259825 -07 25 02.30293
 2018-Nov-22 11:41  m  23 00 28.260201 -07 25 02.30147
 2018-Nov-22 11:42  m  23 00 28.260577 -07 25 02.30001
 2018-Nov-22 11:43  m  23 00 28.260954 -07 25 02.29856
 2018-Nov-22 11:44  m  23 00 28.261331 -07 25 02.29711
 2018-Nov-22 11:45  m  23 00 28.261708 -07 25 02.29568
 2018-Nov-22 11:46  m  23 00 28.262086 -07 25 02.29425
 2018-Nov-22 11:47  m  23 00 28.262463 -07 25 02.29283
 2018-Nov-22 11:48  m  23 00 28.262842 -07 25 02.29142
 2018-Nov-22 11:49  m  23 00 28.263220 -07 25 02.29001
 2018-Nov-22 11:50  m  23 00 28.263599 -07 25 02.28861
 2018-Nov-22 11:51  m  23 00 28.263978 -07 25 02.28723
 2018-Nov-22 11:52  m  23 00 28.264357 -07 25 02.28584
 2018-Nov-22 11:53  m  23 00 28.264737 -07 25 02.28447
 2018-Nov-22 11:54  m  23 00 28.265117 -07 25 02.28311
 2018-Nov-22 11:55  m  23 00 28.265497 -07 25 02.28175
 2018-Nov-22 11:56  m  23 00 28.265878 -07 25 02.28040
 2018-Nov-22 11:57  m  23 00 28.266258 -07 25 02.27906
 2018-Nov-22 11:58  m  23 00 28.266640 -07 25 02.27772
 2018-Nov-22 11:59  m  23 00 28.267021 -07 25 02.27639
 2018-Nov-22 12:00  m  23 00 28.267403 -07 25 02.27508
 2018-Nov-22 12:01  m  23 00 28.267785 -07 25 02.27377
 2018-Nov-22 12:02  m  23 00 28.268167 -07 25 02.27246
 2018-Nov-22 12:03  m  23 00 28.268550 -07 25 02.27117
 2018-Nov-22 12:04  m  23 00 28.268933 -07 25 02.26988
 2018-Nov-22 12:05  m  23 00 28.269316 -07 25 02.26860
 2018-Nov-22 12:06  m  23 00 28.269699 -07 25 02.26733
 2018-Nov-22 12:07  m  23 00 28.270083 -07 25 02.26606
 2018-Nov-22 12:08  m  23 00 28.270467 -07 25 02.26481
 2018-Nov-22 12:09  m  23 00 28.270851 -07 25 02.26356
 2018-Nov-22 12:10  m  23 00 28.271236 -07 25 02.26232
 2018-Nov-22 12:11  m  23 00 28.271621 -07 25 02.26109
 2018-Nov-22 12:12  m  23 00 28.272006 -07 25 02.25986
 2018-Nov-22 12:13  m  23 00 28.272391 -07 25 02.25865
 2018-Nov-22 12:14  m  23 00 28.272777 -07 25 02.25744
 2018-Nov-22 12:15  m  23 00 28.273163 -07 25 02.25624
 2018-Nov-22 12:16  m  23 00 28.273549 -07 25 02.25504
 2018-Nov-22 12:17  m  23 00 28.273936 -07 25 02.25386
 2018-Nov-22 12:18  m  23 00 28.274323 -07 25 02.25268
 2018-Nov-22 12:19  m  23 00 28.274710 -07 25 02.25151
 2018-Nov-22 12:20  m  23 00 28.275098 -07 25 02.25035
 2018-Nov-22 12:21  m  23 00 28.275485 -07 25 02.24920
 2018-Nov-22 12:22  m  23 00 28.275873 -07 25 02.24805
 2018-Nov-22 12:23  m  23 00 28.276261 -07 25 02.24691
 2018-Nov-22 12:24  m  23 00 28.276650 -07 25 02.24578
 2018-Nov-22 12:25  m  23 00 28.277039 -07 25 02.24466
 2018-Nov-22 12:26  m  23 00 28.277428 -07 25 02.24355
 2018-Nov-22 12:27  m  23 00 28.277817 -07 25 02.24244
 2018-Nov-22 12:28  m  23 00 28.278207 -07 25 02.24134
 2018-Nov-22 12:29  m  23 00 28.278597 -07 25 02.24025
 2018-Nov-22 12:30  m  23 00 28.278987 -07 25 02.23917
 2018-Nov-22 12:31  m  23 00 28.279377 -07 25 02.23810
 2018-Nov-22 12:32  m  23 00 28.279768 -07 25 02.23703
 2018-Nov-22 12:33  m  23 00 28.280159 -07 25 02.23597
 2018-Nov-22 12:34  m  23 00 28.280550 -07 25 02.23492
 2018-Nov-22 12:35  m  23 00 28.280942 -07 25 02.23388
 2018-Nov-22 12:36  m  23 00 28.281334 -07 25 02.23285
 2018-Nov-22 12:37  m  23 00 28.281726 -07 25 02.23182
 2018-Nov-22 12:38  m  23 00 28.282118 -07 25 02.23080
 2018-Nov-22 12:39  m  23 00 28.282511 -07 25 02.22979
 2018-Nov-22 12:40  m  23 00 28.282903 -07 25 02.22879
 2018-Nov-22 12:41  m  23 00 28.283297 -07 25 02.22779
 2018-Nov-22 12:42  m  23 00 28.283690 -07 25 02.22681
 2018-Nov-22 12:43  m  23 00 28.284084 -07 25 02.22583
 2018-Nov-22 12:44  m  23 00 28.284477 -07 25 02.22486
 2018-Nov-22 12:45  m  23 00 28.284872 -07 25 02.22389
 2018-Nov-22 12:46  m  23 00 28.285266 -07 25 02.22294
 2018-Nov-22 12:47  m  23 00 28.285661 -07 25 02.22199
 2018-Nov-22 12:48  m  23 00 28.286056 -07 25 02.22105
 2018-Nov-22 12:49  m  23 00 28.286451 -07 25 02.22012
 2018-Nov-22 12:50  m  23 00 28.286846 -07 25 02.21920
 2018-Nov-22 12:51  m  23 00 28.287242 -07 25 02.21829
 2018-Nov-22 12:52  m  23 00 28.287638 -07 25 02.21738
 2018-Nov-22 12:53  m  23 00 28.288034 -07 25 02.21648
 2018-Nov-22 12:54  m  23 00 28.288430 -07 25 02.21559
 2018-Nov-22 12:55  m  23 00 28.288827 -07 25 02.21471
 2018-Nov-22 12:56  m  23 00 28.289224 -07 25 02.21383
 2018-Nov-22 12:57  m  23 00 28.289621 -07 25 02.21297
 2018-Nov-22 12:58  m  23 00 28.290018 -07 25 02.21211
 2018-Nov-22 12:59  m  23 00 28.290416 -07 25 02.21126
 2018-Nov-22 13:00  m  23 00 28.290814 -07 25 02.21042
 2018-Nov-22 13:01  m  23 00 28.291212 -07 25 02.20958
 2018-Nov-22 13:02  m  23 00 28.291611 -07 25 02.20875
 2018-Nov-22 13:03  m  23 00 28.292009 -07 25 02.20794
 2018-Nov-22 13:04  m  23 00 28.292408 -07 25 02.20713
 2018-Nov-22 13:05  m  23 00 28.292807 -07 25 02.20632
 2018-Nov-22 13:06  m  23 00 28.293206 -07 25 02.20553
 2018-Nov-22 13:07  m  23 00 28.293606 -07 25 02.20474
 2018-Nov-22 13:08  m  23 00 28.294006 -07 25 02.20397
 2018-Nov-22 13:09  m  23 00 28.294406 -07 25 02.20320
 2018-Nov-22 13:10  m  23 00 28.294806 -07 25 02.20243
